{
  "norad_id": 67951,
  "name": "STARLINK-36897",
  "history": [
    {
      "epoch": "2026-04-11T10:16:03.152064Z",
      "apogee_km": 484.60075248606245,
      "perigee_km": 481.477545103131,
      "latitude_deg": 2.70502467586322e-05,
      "longitude_deg": 12.513444351639876,
      "height_km": 482.6327929053904,
      "semi_major_axis_km": 6861.176148794596,
      "eccentricity": 0.0002276,
      "inclination_deg": 43.0023,
      "raan_deg": 6.174,
      "arg_perigee_deg": 276.7667,
      "mean_anomaly_deg": 83.2926,
      "mean_motion_rev_day": 15.27583322
    },
    {
      "epoch": "2026-04-13T03:04:07.974048Z",
      "apogee_km": 484.60503790791336,
      "perigee_km": 481.42009227979634,
      "latitude_deg": -2.529145586406036e-05,
      "longitude_deg": 109.2167441389974,
      "height_km": 482.6053782705811,
      "semi_major_axis_km": 6861.149565093854,
      "eccentricity": 0.0002321,
      "inclination_deg": 42.9987,
      "raan_deg": 356.5731,
      "arg_perigee_deg": 276.6518,
      "mean_anomaly_deg": 83.4069,
      "mean_motion_rev_day": 15.275922
    },
    {
      "epoch": "2026-04-14T08:53:05.949600Z",
      "apogee_km": 484.6203650072139,
      "perigee_km": 481.43019899257615,
      "latitude_deg": 5.663206945824082e-06,
      "longitude_deg": 13.734809530852177,
      "height_km": 482.6188662597374,
      "semi_major_axis_km": 6861.162281999895,
      "eccentricity": 0.00023248,
      "inclination_deg": 42.9989,
      "raan_deg": 349.5572,
      "arg_perigee_deg": 276.6138,
      "mean_anomaly_deg": 83.4449,
      "mean_motion_rev_day": 15.27587953
    },
    {
      "epoch": "2026-04-15T00:34:39.913248Z",
      "apogee_km": 484.5599705024433,
      "perigee_km": 481.49742058258107,
      "latitude_deg": -2.9087090251753612e-05,
      "longitude_deg": 134.00317920075292,
      "height_km": 482.5872292247872,
      "semi_major_axis_km": 6861.1656955425115,
      "eccentricity": 0.00022318,
      "inclination_deg": 42.9993,
      "raan_deg": 345.8616,
      "arg_perigee_deg": 278.213,
      "mean_anomaly_deg": 81.8468,
      "mean_motion_rev_day": 15.27586813
    },
    {
      "epoch": "2026-04-16T01:41:10.049280Z",
      "apogee_km": 484.3808138457607,
      "perigee_km": 481.65707215950715,
      "latitude_deg": 9.711470118070855e-06,
      "longitude_deg": 110.4401917035747,
      "height_km": 482.5851294783106,
      "semi_major_axis_km": 6861.155943002634,
      "eccentricity": 0.00019849,
      "inclination_deg": 43.0003,
      "raan_deg": 339.9553,
      "arg_perigee_deg": 278.9138,
      "mean_anomaly_deg": 81.1489,
      "mean_motion_rev_day": 15.2759007
    },
    {
      "epoch": "2026-04-17T21:37:33.036384Z",
      "apogee_km": 483.7214633849899,
      "perigee_km": 482.3198660972357,
      "latitude_deg": 2.001922162873088e-05,
      "longitude_deg": 159.19818577273116,
      "height_km": 482.8289215938454,
      "semi_major_axis_km": 6861.157664741112,
      "eccentricity": 0.00010214,
      "inclination_deg": 43.0017,
      "raan_deg": 329.6136,
      "arg_perigee_deg": 267.4076,
      "mean_anomaly_deg": 92.6659,
      "mean_motion_rev_day": 15.27589495
    },
    {
      "epoch": "2026-04-18T21:09:53.479008Z",
      "apogee_km": 484.25431344240224,
      "perigee_km": 481.72804604661997,
      "latitude_deg": -3.972080977228876e-05,
      "longitude_deg": 159.60793170576213,
      "height_km": 482.6473989420327,
      "semi_major_axis_km": 6861.128179744511,
      "eccentricity": 0.0001841,
      "inclination_deg": 42.9997,
      "raan_deg": 324.0753,
      "arg_perigee_deg": 275.4885,
      "mean_anomaly_deg": 84.5756,
      "mean_motion_rev_day": 15.27599342
    },
    {
      "epoch": "2026-04-19T20:42:14.563584Z",
      "apogee_km": 484.525303716513,
      "perigee_km": 481.58322490237697,
      "latitude_deg": 6.5770254434220265e-06,
      "longitude_deg": 160.0153074055593,
      "height_km": 482.82200447844633,
      "semi_major_axis_km": 6861.191264309445,
      "eccentricity": 0.0002144,
      "inclination_deg": 42.9994,
      "raan_deg": 318.5372,
      "arg_perigee_deg": 270.369,
      "mean_anomaly_deg": 89.6916,
      "mean_motion_rev_day": 15.27578274
    },
    {
      "epoch": "2026-04-20T06:07:11.116128Z",
      "apogee_km": 484.2646777948412,
      "perigee_km": 481.8701174600701,
      "latitude_deg": 2.2772657006100513e-05,
      "longitude_deg": 16.176198911274884,
      "height_km": 482.8165340705981,
      "semi_major_axis_km": 6861.204397627455,
      "eccentricity": 0.0001745,
      "inclination_deg": 42.9993,
      "raan_deg": 316.3204,
      "arg_perigee_deg": 271.3289,
      "mean_anomaly_deg": 88.7363,
      "mean_motion_rev_day": 15.27573888
    },
    {
      "epoch": "2026-04-21T19:46:56.318880Z",
      "apogee_km": 485.44830073481535,
      "perigee_km": 480.596088952223,
      "latitude_deg": -2.6903946852953044e-05,
      "longitude_deg": 160.82905109935152,
      "height_km": 482.5562299489423,
      "semi_major_axis_km": 6861.159194843519,
      "eccentricity": 0.0003536,
      "inclination_deg": 42.9985,
      "raan_deg": 307.4584,
      "arg_perigee_deg": 275.7717,
      "mean_anomaly_deg": 84.2731,
      "mean_motion_rev_day": 15.27588984
    },
    {
      "epoch": "2026-04-22T19:19:17.192640Z",
      "apogee_km": 484.1199265164487,
      "perigee_km": 481.8969154000588,
      "latitude_deg": -4.1148465639585415e-05,
      "longitude_deg": 161.23484170534545,
      "height_km": 483.4123169730949,
      "semi_major_axis_km": 6861.145420958253,
      "eccentricity": 0.000162,
      "inclination_deg": 42.9973,
      "raan_deg": 301.9179,
      "arg_perigee_deg": 124.5496,
      "mean_anomaly_deg": 235.5508,
      "mean_motion_rev_day": 15.27593584
    },
    {
      "epoch": "2026-04-22T19:19:17.193504Z",
      "apogee_km": 484.12026957371927,
      "perigee_km": 481.8965723427873,
      "latitude_deg": -4.4376232239358254e-05,
      "longitude_deg": 161.23483465291326,
      "height_km": 483.4125114985985,
      "semi_major_axis_km": 6861.145420958253,
      "eccentricity": 0.00016205,
      "inclination_deg": 42.9973,
      "raan_deg": 301.9179,
      "arg_perigee_deg": 124.5496,
      "mean_anomaly_deg": 235.5508,
      "mean_motion_rev_day": 15.27593584
    },
    {
      "epoch": "2026-04-25T19:30:28.599264Z",
      "apogee_km": 484.46232310878077,
      "perigee_km": 481.3817076108835,
      "latitude_deg": -2.8570376828214282e-05,
      "longitude_deg": 138.48733003508525,
      "height_km": 482.7354691622829,
      "semi_major_axis_km": 6861.059015359831,
      "eccentricity": 0.0002245,
      "inclination_deg": 42.9991,
      "raan_deg": 284.9325,
      "arg_perigee_deg": 268.653,
      "mean_anomaly_deg": 91.4064,
      "mean_motion_rev_day": 15.27622441
    },
    {
      "epoch": "2026-04-26T17:28:40.161504Z",
      "apogee_km": 485.0044032851765,
      "perigee_km": 481.01862489037194,
      "latitude_deg": 2.224496604234716e-05,
      "longitude_deg": 162.8666377779013,
      "height_km": 482.63649912895596,
      "semi_major_axis_km": 6861.148514087774,
      "eccentricity": 0.00029046,
      "inclination_deg": 42.998,
      "raan_deg": 279.7622,
      "arg_perigee_deg": 274.3915,
      "mean_anomaly_deg": 85.6605,
      "mean_motion_rev_day": 15.27592551
    },
    {
      "epoch": "2026-04-27T17:01:01.307424Z",
      "apogee_km": 483.35384697458176,
      "perigee_km": 482.6457776555517,
      "latitude_deg": 1.5766888639845887e-05,
      "longitude_deg": 163.27070271575909,
      "height_km": 483.0733029410885,
      "semi_major_axis_km": 6861.136812315067,
      "eccentricity": 5.16e-05,
      "inclination_deg": 42.9947,
      "raan_deg": 274.2211,
      "arg_perigee_deg": 212.5448,
      "mean_anomaly_deg": 147.5372,
      "mean_motion_rev_day": 15.27596459
    },
    {
      "epoch": "2026-04-28T19:41:40.894080Z",
      "apogee_km": 484.6126913896178,
      "perigee_km": 481.4373456074554,
      "latitude_deg": -1.2948686598998527e-05,
      "longitude_deg": 115.73311582205727,
      "height_km": 483.10062330142,
      "semi_major_axis_km": 6861.162018498536,
      "eccentricity": 0.0002314,
      "inclination_deg": 42.9983,
      "raan_deg": 267.9441,
      "arg_perigee_deg": 259.1646,
      "mean_anomaly_deg": 100.8945,
      "mean_motion_rev_day": 15.27588041
    },
    {
      "epoch": "2026-04-29T09:49:05.597184Z",
      "apogee_km": 483.931029375718,
      "perigee_km": 482.1222894118291,
      "latitude_deg": -1.2515308874200937e-05,
      "longitude_deg": -100.02124579505069,
      "height_km": 482.9997801137432,
      "semi_major_axis_km": 6861.163659393773,
      "eccentricity": 0.00013181,
      "inclination_deg": 42.9982,
      "raan_deg": 264.6227,
      "arg_perigee_deg": 257.4351,
      "mean_anomaly_deg": 102.6353,
      "mean_motion_rev_day": 15.27587493
    },
    {
      "epoch": "2026-04-30T09:21:26.343936Z",
      "apogee_km": 485.6442535312772,
      "perigee_km": 480.35006519123,
      "latitude_deg": -1.0579094360116015e-05,
      "longitude_deg": -99.61260489424713,
      "height_km": 482.63908621694674,
      "semi_major_axis_km": 6861.134159361253,
      "eccentricity": 0.00038581,
      "inclination_deg": 43.0055,
      "raan_deg": 259.0845,
      "arg_perigee_deg": 272.9672,
      "mean_anomaly_deg": 87.0738,
      "mean_motion_rev_day": 15.27597345
    },
    {
      "epoch": "2026-05-02T08:26:08.267712Z",
      "apogee_km": 485.9662161701672,
      "perigee_km": 480.11500390432593,
      "latitude_deg": 8.457751609436678e-07,
      "longitude_deg": -98.80511510445089,
      "height_km": 482.25471763399827,
      "semi_major_axis_km": 6861.177610037246,
      "eccentricity": 0.0004264,
      "inclination_deg": 42.9959,
      "raan_deg": 248.0001,
      "arg_perigee_deg": 281.1149,
      "mean_anomaly_deg": 78.9223,
      "mean_motion_rev_day": 15.27582834
    }
  ]
}